{"fetched_at":"2026-03-30T06:02:59Z","count":15439,"tles":[{"name":"STARLINK-30532","line1":"1 58070U 23158V   26087.80803024  .00001249  00000+0  54887-4 0  9998","line2":"2 58070  43.0008 279.0879 0001077 273.5724  86.5004 15.27581643136492","category":"Starlink"}]}