{
  "norad_id": 58070,
  "name": "STARLINK-30532",
  "history": [
    {
      "epoch": "2026-03-28T19:23:33.812736Z",
      "apogee_km": 483.7836058063667,
      "perigee_km": 482.30474681562464,
      "latitude_deg": -2.3610744701702864e-05,
      "longitude_deg": 161.9738215837995,
      "height_km": 482.7746267946071,
      "semi_major_axis_km": 6861.181176310995,
      "eccentricity": 0.00010777,
      "inclination_deg": 43.0008,
      "raan_deg": 279.0879,
      "arg_perigee_deg": 273.5724,
      "mean_anomaly_deg": 86.5004,
      "mean_motion_rev_day": 15.27581643
    }
  ]
}